FOX-1D (AO-92)          
1 43137U 18004AC  23267.22551584  .00068675  00000+0  10111-2 0  9990
2 43137  97.3182 348.0317 0004967 139.9410 220.2211 15.55192447317654
DIWATA-2B               
1 43678U 18084H   23267.53981881  .00002678  00000+0  25806-3 0  9998
2 43678  98.0369  53.6186 0009337 186.3353 173.7750 14.93797183267091
ES'HAIL 2               
1 43700U 18090A   23267.55449744  .00000137  00000+0  00000+0 0  9993
2 43700   0.0013 145.1214 0001281  22.2723  61.1503  1.00271264 17689
FOX-1CLIFF (AO-95)      
1 43770U 18099N   23267.12829363  .00008147  00000+0  64080-3 0  9992
2 43770  97.5762 326.0698 0014911 175.3536 184.7829 15.01010938262444
ITASAT 1                
1 43786U 18099AE  23267.15870730  .00006101  00000+0  48805-3 0  9991
2 43786  97.5608 327.0641 0018621 157.4229 202.7818 15.00415900262481
JY1SAT (JO-97)          
1 43803U 18099AX  23267.14847243  .00007436  00000+0  56949-3 0  9993
2 43803  97.5624 327.2579 0013464 125.3607 234.8879 15.02075072262549
UWE-4                   
1 43880U 18111E   23267.16567861  .00008750  00000+0  64343-3 0  9997
2 43880  97.6207 170.8436 0017625 192.5935 167.4852 15.03517677259236
NEXUS (FO-99)           
1 43937U 19003F   23267.57233967  .00175737  00000+0  13887-2 0  9999
2 43937  97.0744 294.5614 0005730 240.8901 119.1790 15.70823895261543
JAISAT-1                
1 44419U 19038F   23267.45561979  .00039121  00000+0  11185-2 0  9992
2 44419  97.6806 252.9004 0010290 320.5385  39.5108 15.35825806233748
DUCHIFAT-3              
1 44854U 19089C   23267.25500286  .00013146  00000+0  84006-3 0  9995
2 44854  36.9598 218.4476 0005894  40.6429 319.4754 15.08043330207852
TIANYAN 01              
1 44881U 19093C   23267.50398431  .00001709  00000+0  21746-3 0  9999
2 44881  97.8551 344.2487 0015993 112.4452 247.8457 14.82781353203510
RS-44 & BREEZE-KM R/B   
1 44909U 19096E   23267.51293819  .00000035  00000+0  10209-3 0  9991
2 44909  82.5165 281.9463 0216615 314.9696  43.4018 12.79722755174860
BY70-2                  
1 45857U 20042B   23267.57076205  .00032156  00000+0  29464-2 0  9992
2 45857  97.9197 348.0800 0007742  47.0486 313.1382 14.94816918174368
SALSAT                  
1 46495U 20068K   23267.50577558  .00006412  00000+0  41127-3 0  9996
2 46495  97.7775 216.6687 0016475 136.7356 223.5169 15.08747456164042
RADFXSAT-2 (AO-109)     
1 47311U 21002C   23267.59471268  .00048063  00000+0  10009-2 0  9995
2 47311  60.6795  34.7499 0014475 353.7995   6.2921 15.45172563149619
UVSQ-SAT                
1 47438U 21006AB  23267.11406179  .00025530  00000+0  94036-3 0  9993
2 47438  97.3738 322.9630 0010548  94.4768 265.7676 15.27764244147739
LEDSAT                  
1 49069U 21073D   23267.19078302  .00012879  00000+0  66790-3 0  9998
2 49069  97.4739 336.4650 0024231 135.4453 224.8734 15.16030030115896
XW-3 (CAS-9)            
1 50466U 21131B   23267.46314661  .00000956  00000+0  32367-3 0  9993
2 50466  98.5471 348.6863 0004086 188.2869 171.8252 14.39064306 91636
TEVEL-3                 
1 50988U 22002E   23267.44631479  .00031787  00000+0  11079-2 0  9999
2 50988  97.4235 333.9794 0006111 233.4730 126.5948 15.29566614 93913
TEVEL-8                 
1 50989U 22002F   23267.46967039  .00033373  00000+0  11655-2 0  9999
2 50989  97.4250 334.0725 0006209 233.0071 127.0601 15.29490983 93916
TEVEL-5                 
1 50998U 22002Q   23267.46227282  .00034551  00000+0  11655-2 0  9997
2 50998  97.4230 334.5099 0007279 228.7266 131.3348 15.30604745 93953
TEVEL-6                 
1 50999U 22002R   23267.46089992  .00033785  00000+0  11400-2 0  9998
2 50999  97.4227 334.5008 0007309 228.2539 131.8078 15.30599582 93959
TEVEL-1                 
1 51013U 22002AF  23267.45949707  .00031713  00000+0  11073-2 0  9999
2 51013  97.4226 333.9176 0006074 233.4492 126.6190 15.29509229 93919
TEVEL-7                 
1 51062U 22002CG  23267.46913921  .00033053  00000+0  11534-2 0  9994
2 51062  97.4246 334.0428 0006199 232.4575 127.6102 15.29519136 93918
TEVEL-4                 
1 51063U 22002CH  23267.47934090  .00032778  00000+0  11465-2 0  9992
2 51063  97.4243 334.0246 0006213 232.5311 127.5365 15.29443759 93917
TEVEL-2                 
1 51069U 22002CP  23267.44772669  .00031289  00000+0  10904-2 0  9990
2 51069  97.4232 333.9493 0006090 233.2862 126.7819 15.29574352 93914
GREENCUBE               
1 53106U 22080B   23261.43787344 -.00000003  00000+0  00000+0 0  9993
2 53106  70.1429 287.3171 0008510 169.3045 190.7797  6.42557208 27740
CYCLOPS (RS29S)         
1 53373U 22096D   23267.58530374  .00060468  00000+0  11940-2 0  9995
2 53373  97.4003 175.4815 0003930 101.7676 258.4015 15.46945803 63010
MONITOR-1 (RS32S)       
1 53374U 22096E   23267.56690002  .00055332  00000+0  11552-2 0  9992
2 53374  97.3972 175.1236 0004445 106.7610 253.4127 15.45336229 62994
KUZBASS-300 (RS34S)     
1 53375U 22096F   23267.55983479  .00043885  00000+0  10337-2 0  9995
2 53375  97.4013 174.4596 0003816 104.7902 255.3768 15.41800993 62943
UTMN (RS23S)            
1 53376U 22096G   23267.47601132  .00046248  00000+0  10594-2 0  9991
2 53376  97.4007 174.5583 0003776 102.3370 257.8301 15.42627540 62948
MIET-AIS (RS28S)        
1 53377U 22096H   23267.54897516  .00037315  00000+0  90979-3 0  9994
2 53377  97.4025 174.3415 0003685 102.1881 257.9779 15.40793949 62939
KAI-1 (RS26S)           
1 53378U 22096J   23267.50677726  .00031458  00000+0  82429-3 0  9993
2 53378  97.4043 173.8251 0003485 100.2743 259.8895 15.38627394 62898
ISOI (RS19S)            
1 53381U 22096M   23267.56806931  .00040669  00000+0  95967-3 0  9990
2 53381  97.4018 174.7416 0005655  78.1948 281.9933 15.41755711 62964
CUBESX-HSE-2 (RS21S)    
1 53383U 22096P   23267.56390806  .00044651  00000+0  10180-2 0  9999
2 53383  97.4011 174.9109 0006146  78.4688 281.7249 15.42765357 62977
SIREN (RS30S)           
1 53384U 22096Q   23267.52415293  .00036208  00000+0  89614-3 0  9992
2 53384  97.4030 174.3874 0006017  76.1702 284.0213 15.40333480 62930
GEOSCAN-EDELVEIS (RS20S)
1 53385U 22096R   23267.51051261  .00067455  00000+0  12442-2 0  9995
2 53385  97.3984 176.1532 0006608  71.5413 288.6556 15.48870157 63085
VIZARD (RS33S)          
1 53386U 22096S   23267.46844665  .00114202  00000+0  15760-2 0  9997
2 53386  97.3984 177.5908 0007279  79.8642 280.3434 15.56768978 63167
CAS-5A (FO-118)         
1 54684U 22167C   23267.53112465  .00019060  00000+0  97516-3 0  9998
2 54684  97.5746  44.6754 0012585 355.7827   4.3298 15.16609686 43725
STRATOSAT-TK 1 (RS52S)  
1 57167U 23091B   23267.57409321  .00011272  00000+0  80432-3 0  9994
2 57167  97.6541 317.4268 0016629 311.3871  48.5925 15.04593262 13373
UMKA 1 (RS40S)          
1 57172U 23091G   23267.58319720  .00004830  00000+0  35245-3 0  9998
2 57172  97.6548 317.4158 0016646 311.7673  48.2130 15.04057425 13378
CUBESX-HSE 3 (RS42S)    
1 57178U 23091N   23267.58818634  .00006699  00000+0  48622-3 0  9990
2 57178  97.6591 317.4545 0017298 306.1104  53.8520 15.04107231 13379
MONITOR-4 (RS57S)       
1 57182U 23091S   23267.59266927  .00006457  00000+0  47022-3 0  9993
2 57182  97.6584 317.4361 0017415 307.3557  52.6082 15.03997461 13379
MONITOR-2 (RS39S)       
1 57184U 23091U   23267.54526586  .00005321  00000+0  38216-3 0  9994
2 57184  97.6593 317.4990 0013558 300.9842  59.0051 15.04650110 13374
SVYATOBOR 1 (RS60S)     
1 57187U 23091X   23267.52968986  .00006412  00000+0  45496-3 0  9999
2 57187  97.6592 317.5207 0012985 299.6391  60.3542 15.05032193 13370
VIZARD-METEO (RS38S)    
1 57189U 23091Z   23267.44158086  .00007551  00000+0  52857-3 0  9998
2 57189  97.6569 317.4739 0012514 297.2590  62.7361 15.05482999 13365
NANOZOND 1 (RS49S)      
1 57190U 23091AA  23267.55676055  .00011415  00000+0  78614-3 0  9996
2 57190  97.6556 317.5945 0011214 303.5443  56.4712 15.05978338 13386
POLYTECH-UNIVERSE 3 (R*)
1 57191U 23091AB  23267.59147783  .00004568  00000+0  32988-3 0  9997
2 57191  97.6554 317.4041 0019389 318.8904  41.0860 15.04445314 13378
UTMN 2 (RS27S)          
1 57203U 23091AP  23267.58005954  .00006608  00000+0  46466-3 0  9996
2 57203  97.6571 317.5986 0012700 297.1178  62.8752 15.05356486 13386
ARCCUBE 1 (RS25S)       
1 57205U 23091AR  23267.55698575  .00012477  00000+0  85686-3 0  9990
2 57205  97.6538 317.5752 0011578 305.3597  54.6547 15.06055447 13386
KUZGTU 1 (RS47S)        
1 57217U 23091AV  23267.58603928  .00006407  00000+0  46506-3 0  9998
2 57217  97.6564 317.4290 0017285 307.5033  52.4621 15.04125881 13370
